{
  "DATA": [
    {
      "OBJECT_NAME": "GPS BIIR-2  (PRN 13)",
      "OBJECT_ID": "1997-035A",
      "EPOCH": "2024-10-17T22:17:35.645856",
      "MEAN_MOTION": 2.00561416,
      "ECCENTRICITY": 0.0085217,
      "INCLINATION": 55.7102,
      "RA_OF_ASC_NODE": 122.3315,
      "ARG_OF_PERICENTER": 54.6286,
      "MEAN_ANOMALY": 306.2321,
      "EPHEMERIS_TYPE": 0,
      "CLASSIFICATION_TYPE": "U",
      "NORAD_CAT_ID": 24876,
      "ELEMENT_SET_NO": 999,
      "REV_AT_EPOCH": 19957,
      "BSTAR": 0,
      "MEAN_MOTION_DOT": 6.3e-07,
      "MEAN_MOTION_DDOT": 0
    },
    {
      "OBJECT_NAME": "GPS BIIR-4  (PRN 20)",
      "OBJECT_ID": "2000-025A",
      "EPOCH": "2024-10-18T07:33:49.773024",
      "MEAN_MOTION": 2.00569954,
      "ECCENTRICITY": 0.0039655,
      "INCLINATION": 54.7647,
      "RA_OF_ASC_NODE": 43.8723,
      "ARG_OF_PERICENTER": 219.1603,
      "MEAN_ANOMALY": 149.1003,
      "EPHEMERIS_TYPE": 0,
      "CLASSIFICATION_TYPE": "U",
      "NORAD_CAT_ID": 26360,
      "ELEMENT_SET_NO": 999,
      "REV_AT_EPOCH": 17910,
      "BSTAR": 0,
      "MEAN_MOTION_DOT": -7.2e-07,
      "MEAN_MOTION_DDOT": 0
    },
    {
      "OBJECT_NAME": "GPS BIIR-5  (PRN 22)",
      "OBJECT_ID": "2000-040A",
      "EPOCH": "2024-10-18T18:52:27.693696",
      "MEAN_MOTION": 2.00561803,
      "ECCENTRICITY": 0.0141454,
      "INCLINATION": 55.0212,
      "RA_OF_ASC_NODE": 239.2664,
      "ARG_OF_PERICENTER": 296.4375,
      "MEAN_ANOMALY": 250.2094,
      "EPHEMERIS_TYPE": 0,
      "CLASSIFICATION_TYPE": "U",
      "NORAD_CAT_ID": 26407,
      "ELEMENT_SET_NO": 999,
      "REV_AT_EPOCH": 17778,
      "BSTAR": 0,
      "MEAN_MOTION_DOT": 2e-08,
      "MEAN_MOTION_DDOT": 0
    },
    {
      "OBJECT_NAME": "GPS BIIR-8  (PRN 16)",
      "OBJECT_ID": "2003-005A",
      "EPOCH": "2024-10-18T20:19:52.563360",
      "MEAN_MOTION": 2.0056766,
      "ECCENTRICITY": 0.0139223,
      "INCLINATION": 55.0586,
      "RA_OF_ASC_NODE": 239.0751,
      "ARG_OF_PERICENTER": 47.9729,
      "MEAN_ANOMALY": 322.829,
      "EPHEMERIS_TYPE": 0,
      "CLASSIFICATION_TYPE": "U",
      "NORAD_CAT_ID": 27663,
      "ELEMENT_SET_NO": 999,
      "REV_AT_EPOCH": 15915,
      "BSTAR": 0,
      "MEAN_MOTION_DOT": 2e-08,
      "MEAN_MOTION_DDOT": 0
    },
    {
      "OBJECT_NAME": "GPS BIIR-9  (PRN 21)",
      "OBJECT_ID": "2003-010A",
      "EPOCH": "2024-10-18T15:03:36.941760",
      "MEAN_MOTION": 2.0056722,
      "ECCENTRICITY": 0.025594,
      "INCLINATION": 55.07,
      "RA_OF_ASC_NODE": 348.8088,
      "ARG_OF_PERICENTER": 330.5041,
      "MEAN_ANOMALY": 97.1373,
      "EPHEMERIS_TYPE": 0,
      "CLASSIFICATION_TYPE": "U",
      "NORAD_CAT_ID": 27704,
      "ELEMENT_SET_NO": 999,
      "REV_AT_EPOCH": 15793,
      "BSTAR": 0,
      "MEAN_MOTION_DOT": -8.7e-07,
      "MEAN_MOTION_DDOT": 0
    },
    {
      "OBJECT_NAME": "GPS BIIR-11 (PRN 19)",
      "OBJECT_ID": "2004-009A",
      "EPOCH": "2024-10-19T05:13:14.496096",
      "MEAN_MOTION": 2.00555391,
      "ECCENTRICITY": 0.0098928,
      "INCLINATION": 55.3485,
      "RA_OF_ASC_NODE": 300.079,
      "ARG_OF_PERICENTER": 154.0368,
      "MEAN_ANOMALY": 277.0201,
      "EPHEMERIS_TYPE": 0,
      "CLASSIFICATION_TYPE": "U",
      "NORAD_CAT_ID": 28190,
      "ELEMENT_SET_NO": 999,
      "REV_AT_EPOCH": 15082,
      "BSTAR": 0,
      "MEAN_MOTION_DOT": -3.8e-07,
      "MEAN_MOTION_DDOT": 0
    },
    {
      "OBJECT_NAME": "GPS BIIR-13 (PRN 02)",
      "OBJECT_ID": "2004-045A",
      "EPOCH": "2024-10-19T01:16:33.284928",
      "MEAN_MOTION": 2.00562371,
      "ECCENTRICITY": 0.0165042,
      "INCLINATION": 55.3995,
      "RA_OF_ASC_NODE": 349.2526,
      "ARG_OF_PERICENTER": 295.6873,
      "MEAN_ANOMALY": 63.8324,
      "EPHEMERIS_TYPE": 0,
      "CLASSIFICATION_TYPE": "U",
      "NORAD_CAT_ID": 28474,
      "ELEMENT_SET_NO": 999,
      "REV_AT_EPOCH": 14626,
      "BSTAR": 0,
      "MEAN_MOTION_DOT": -8.9e-07,
      "MEAN_MOTION_DDOT": 0
    },
    {
      "OBJECT_NAME": "GPS BIIRM-1 (PRN 17)",
      "OBJECT_ID": "2005-038A",
      "EPOCH": "2024-10-18T08:01:43.567392",
      "MEAN_MOTION": 2.00576976,
      "ECCENTRICITY": 0.0137437,
      "INCLINATION": 55.3947,
      "RA_OF_ASC_NODE": 297.5797,
      "ARG_OF_PERICENTER": 286.1251,
      "MEAN_ANOMALY": 251.8463,
      "EPHEMERIS_TYPE": 0,
      "CLASSIFICATION_TYPE": "U",
      "NORAD_CAT_ID": 28874,
      "ELEMENT_SET_NO": 999,
      "REV_AT_EPOCH": 13966,
      "BSTAR": 0,
      "MEAN_MOTION_DOT": -3.4e-07,
      "MEAN_MOTION_DDOT": 0
    },
    {
      "OBJECT_NAME": "GPS BIIRM-2 (PRN 31)",
      "OBJECT_ID": "2006-042A",
      "EPOCH": "2024-10-18T11:06:14.677632",
      "MEAN_MOTION": 2.00573779,
      "ECCENTRICITY": 0.0105024,
      "INCLINATION": 54.6753,
      "RA_OF_ASC_NODE": 175.4046,
      "ARG_OF_PERICENTER": 42.2427,
      "MEAN_ANOMALY": 128.4675,
      "EPHEMERIS_TYPE": 0,
      "CLASSIFICATION_TYPE": "U",
      "NORAD_CAT_ID": 29486,
      "ELEMENT_SET_NO": 999,
      "REV_AT_EPOCH": 13222,
      "BSTAR": 0,
      "MEAN_MOTION_DOT": 4.6e-07,
      "MEAN_MOTION_DDOT": 0
    },
    {
      "OBJECT_NAME": "GPS BIIRM-3 (PRN 12)",
      "OBJECT_ID": "2006-052A",
      "EPOCH": "2024-10-18T03:28:18.214464",
      "MEAN_MOTION": 2.00574264,
      "ECCENTRICITY": 0.0085342,
      "INCLINATION": 55.093,
      "RA_OF_ASC_NODE": 238.0895,
      "ARG_OF_PERICENTER": 83.7106,
      "MEAN_ANOMALY": 277.2397,
      "EPHEMERIS_TYPE": 0,
      "CLASSIFICATION_TYPE": "U",
      "NORAD_CAT_ID": 29601,
      "ELEMENT_SET_NO": 999,
      "REV_AT_EPOCH": 13123,
      "BSTAR": 0,
      "MEAN_MOTION_DOT": -1e-08,
      "MEAN_MOTION_DDOT": 0
    },
    {
      "OBJECT_NAME": "GPS BIIRM-4 (PRN 15)",
      "OBJECT_ID": "2007-047A",
      "EPOCH": "2024-10-18T22:49:00.499008",
      "MEAN_MOTION": 2.00558225,
      "ECCENTRICITY": 0.0159408,
      "INCLINATION": 53.6765,
      "RA_OF_ASC_NODE": 105.1215,
      "ARG_OF_PERICENTER": 78.1653,
      "MEAN_ANOMALY": 283.646,
      "EPHEMERIS_TYPE": 0,
      "CLASSIFICATION_TYPE": "U",
      "NORAD_CAT_ID": 32260,
      "ELEMENT_SET_NO": 999,
      "REV_AT_EPOCH": 12467,
      "BSTAR": 0,
      "MEAN_MOTION_DOT": 2.7e-07,
      "MEAN_MOTION_DDOT": 0
    },
    {
      "OBJECT_NAME": "GPS BIIRM-5 (PRN 29)",
      "OBJECT_ID": "2007-062A",
      "EPOCH": "2024-10-18T18:26:32.942976",
      "MEAN_MOTION": 2.00553866,
      "ECCENTRICITY": 0.0028001,
      "INCLINATION": 55.5363,
      "RA_OF_ASC_NODE": 298.4432,
      "ARG_OF_PERICENTER": 157.9752,
      "MEAN_ANOMALY": 199.3141,
      "EPHEMERIS_TYPE": 0,
      "CLASSIFICATION_TYPE": "U",
      "NORAD_CAT_ID": 32384,
      "ELEMENT_SET_NO": 999,
      "REV_AT_EPOCH": 12341,
      "BSTAR": 0,
      "MEAN_MOTION_DOT": -3.6e-07,
      "MEAN_MOTION_DDOT": 0
    },
    {
      "OBJECT_NAME": "GPS BIIRM-6 (PRN 07)",
      "OBJECT_ID": "2008-012A",
      "EPOCH": "2024-10-18T20:45:23.414112",
      "MEAN_MOTION": 2.00571649,
      "ECCENTRICITY": 0.0189712,
      "INCLINATION": 54.4496,
      "RA_OF_ASC_NODE": 174.121,
      "ARG_OF_PERICENTER": 240.1742,
      "MEAN_ANOMALY": 118.0176,
      "EPHEMERIS_TYPE": 0,
      "CLASSIFICATION_TYPE": "U",
      "NORAD_CAT_ID": 32711,
      "ELEMENT_SET_NO": 999,
      "REV_AT_EPOCH": 12159,
      "BSTAR": 0,
      "MEAN_MOTION_DOT": 4.3e-07,
      "MEAN_MOTION_DDOT": 0
    }
  ]
}