GPS BIIR-2  (PRN 13)    
1 24876U 97035A   24291.92888479  .00000063  00000+0  00000+0 0  9991
2 24876  55.7102 122.3315 0085217  54.6286 306.2321  2.00561416199573
GPS BIIR-4  (PRN 20)    
1 26360U 00025A   24292.31515941 -.00000072  00000+0  00000+0 0  9990
2 26360  54.7647  43.8723 0039655 219.1603 149.1003  2.00569954179105
GPS BIIR-5  (PRN 22)    
1 26407U 00040A   24292.78643164  .00000002  00000+0  00000+0 0  9991
2 26407  55.0212 239.2664 0141454 296.4375 250.2094  2.00561803177780
GPS BIIR-8  (PRN 16)    
1 27663U 03005A   24292.84713615  .00000002  00000+0  00000+0 0  9996
2 27663  55.0586 239.0751 0139223  47.9729 322.8290  2.00567660159159
GPS BIIR-9  (PRN 21)    
1 27704U 03010A   24292.62751090 -.00000087  00000+0  00000+0 0  9997
2 27704  55.0700 348.8088 0255940 330.5041  97.1373  2.00567220157938
GPS BIIR-11 (PRN 19)    
1 28190U 04009A   24293.21752889 -.00000038  00000+0  00000+0 0  9995
2 28190  55.3485 300.0790 0098928 154.0368 277.0201  2.00555391150829
GPS BIIR-13 (PRN 02)    
1 28474U 04045A   24293.05316302 -.00000089  00000+0  00000+0 0  9994
2 28474  55.3995 349.2526 0165042 295.6873  63.8324  2.00562371146263
GPS BIIRM-1 (PRN 17)    
1 28874U 05038A   24292.33453203 -.00000034  00000+0  00000+0 0  9993
2 28874  55.3947 297.5797 0137437 286.1251 251.8463  2.00576976139666
GPS BIIRM-2 (PRN 31)    
1 29486U 06042A   24292.46266988  .00000046  00000+0  00000+0 0  9997
2 29486  54.6753 175.4046 0105024  42.2427 128.4675  2.00573779132224
GPS BIIRM-3 (PRN 12)    
1 29601U 06052A   24292.14465526 -.00000001  00000+0  00000+0 0  9993
2 29601  55.0930 238.0895 0085342  83.7106 277.2397  2.00574264131231
GPS BIIRM-4 (PRN 15)    
1 32260U 07047A   24292.95070022  .00000027  00000+0  00000+0 0  9992
2 32260  53.6765 105.1215 0159408  78.1653 283.6460  2.00558225124677
GPS BIIRM-5 (PRN 29)    
1 32384U 07062A   24292.76843684 -.00000036  00000+0  00000+0 0  9998
2 32384  55.5363 298.4432 0028001 157.9752 199.3141  2.00553866123412
GPS BIIRM-6 (PRN 07)    
1 32711U 08012A   24292.86485433  .00000043  00000+0  00000+0 0  9990
2 32711  54.4496 174.1210 0189712 240.1742 118.0176  2.00571649121598
